CCSDS_OMM_VERS = 2.0
CREATION_DATE  = 
ORIGINATOR     = 

OBJECT_NAME    = GLOBAL-34
OBJECT_ID      = 2026-043A
CENTER_NAME    = EARTH
REF_FRAME      = TEME
TIME_SYSTEM    = UTC
MEAN_ELEMENT_THEORY = SGP/SGP4

EPOCH          = 2026-04-02T20:40:52.483584
MEAN_MOTION    = 15.32028422
ECCENTRICITY   = .00035891
INCLINATION    = 42.0208
RA_OF_ASC_NODE = 295.9341
ARG_OF_PERICENTER = 104.2885
MEAN_ANOMALY   = 255.8351

EPHEMERIS_TYPE = 0
CLASSIFICATION_TYPE = U
NORAD_CAT_ID   = 68098
ELEMENT_SET_NO = 999
REV_AT_EPOCH   = 427
BSTAR          = .65475785E-3
MEAN_MOTION_DOT = .20494E-3
MEAN_MOTION_DDOT = 0

CCSDS_OMM_VERS = 2.0
CREATION_DATE  = 
ORIGINATOR     = 

OBJECT_NAME    = STARLINK-37022
OBJECT_ID      = 2026-044A
CENTER_NAME    = EARTH
REF_FRAME      = TEME
TIME_SYSTEM    = UTC
MEAN_ELEMENT_THEORY = SGP/SGP4

EPOCH          = 2026-04-03T22:00:01.999584
MEAN_MOTION    = 15.49326998
ECCENTRICITY   = .00010643
INCLINATION    = 97.2857
RA_OF_ASC_NODE = 55.1593
ARG_OF_PERICENTER = 101.0383
MEAN_ANOMALY   = 197.4512

EPHEMERIS_TYPE = 0
CLASSIFICATION_TYPE = U
NORAD_CAT_ID   = 68101
ELEMENT_SET_NO = 999
REV_AT_EPOCH   = 545
BSTAR          = -.41164963E-1
MEAN_MOTION_DOT = -.2009567E-1
MEAN_MOTION_DDOT = 0

CCSDS_OMM_VERS = 2.0
CREATION_DATE  = 
ORIGINATOR     = 

OBJECT_NAME    = STARLINK-37046
OBJECT_ID      = 2026-044B
CENTER_NAME    = EARTH
REF_FRAME      = TEME
TIME_SYSTEM    = UTC
MEAN_ELEMENT_THEORY = SGP/SGP4

EPOCH          = 2026-04-03T22:00:01.999584
MEAN_MOTION    = 15.48997035
ECCENTRICITY   = .00022094
INCLINATION    = 97.2852
RA_OF_ASC_NODE = 55.1678
ARG_OF_PERICENTER = 99.9412
MEAN_ANOMALY   = 216.6953

EPHEMERIS_TYPE = 0
CLASSIFICATION_TYPE = U
NORAD_CAT_ID   = 68102
ELEMENT_SET_NO = 999
REV_AT_EPOCH   = 545
BSTAR          = -.39263942E-1
MEAN_MOTION_DOT = -.1906704E-1
MEAN_MOTION_DDOT = 0

CCSDS_OMM_VERS = 2.0
CREATION_DATE  = 
ORIGINATOR     = 

OBJECT_NAME    = STARLINK-37018
OBJECT_ID      = 2026-044C
CENTER_NAME    = EARTH
REF_FRAME      = TEME
TIME_SYSTEM    = UTC
MEAN_ELEMENT_THEORY = SGP/SGP4

EPOCH          = 2026-04-03T22:00:01.999584
MEAN_MOTION    = 15.49100281
ECCENTRICITY   = .00016196
INCLINATION    = 97.2853
RA_OF_ASC_NODE = 55.1737
ARG_OF_PERICENTER = 101.1650
MEAN_ANOMALY   = 229.1629

EPHEMERIS_TYPE = 0
CLASSIFICATION_TYPE = U
NORAD_CAT_ID   = 68103
ELEMENT_SET_NO = 999
REV_AT_EPOCH   = 541
BSTAR          = -.39320037E-1
MEAN_MOTION_DOT = -.1915085E-1
MEAN_MOTION_DDOT = 0

CCSDS_OMM_VERS = 2.0
CREATION_DATE  = 
ORIGINATOR     = 

OBJECT_NAME    = STARLINK-37041
OBJECT_ID      = 2026-044D
CENTER_NAME    = EARTH
REF_FRAME      = TEME
TIME_SYSTEM    = UTC
MEAN_ELEMENT_THEORY = SGP/SGP4

EPOCH          = 2026-04-03T22:00:01.999584
MEAN_MOTION    = 15.49475080
ECCENTRICITY   = .00014779
INCLINATION    = 97.2854
RA_OF_ASC_NODE = 55.1844
ARG_OF_PERICENTER = 103.1813
MEAN_ANOMALY   = 251.9645

EPHEMERIS_TYPE = 0
CLASSIFICATION_TYPE = U
NORAD_CAT_ID   = 68104
ELEMENT_SET_NO = 999
REV_AT_EPOCH   = 541
BSTAR          = -.38651995E-1
MEAN_MOTION_DOT = -.1908286E-1
MEAN_MOTION_DDOT = 0

CCSDS_OMM_VERS = 2.0
CREATION_DATE  = 
ORIGINATOR     = 

OBJECT_NAME    = STARLINK-37021
OBJECT_ID      = 2026-044E
CENTER_NAME    = EARTH
REF_FRAME      = TEME
TIME_SYSTEM    = UTC
MEAN_ELEMENT_THEORY = SGP/SGP4

EPOCH          = 2026-04-03T22:00:01.999584
MEAN_MOTION    = 15.49238324
ECCENTRICITY   = .00016262
INCLINATION    = 97.2852
RA_OF_ASC_NODE = 55.1677
ARG_OF_PERICENTER = 95.4528
MEAN_ANOMALY   = 225.3492

EPHEMERIS_TYPE = 0
CLASSIFICATION_TYPE = U
NORAD_CAT_ID   = 68105
ELEMENT_SET_NO = 999
REV_AT_EPOCH   = 541
BSTAR          = -.18952715E-2
MEAN_MOTION_DOT = -.102025E-2
MEAN_MOTION_DDOT = 0

CCSDS_OMM_VERS = 2.0
CREATION_DATE  = 
ORIGINATOR     = 

OBJECT_NAME    = STARLINK-37024
OBJECT_ID      = 2026-044F
CENTER_NAME    = EARTH
REF_FRAME      = TEME
TIME_SYSTEM    = UTC
MEAN_ELEMENT_THEORY = SGP/SGP4

EPOCH          = 2026-04-03T22:00:01.999584
MEAN_MOTION    = 15.49553518
ECCENTRICITY   = .00014664
INCLINATION    = 97.2849
RA_OF_ASC_NODE = 55.1876
ARG_OF_PERICENTER = 72.1441
MEAN_ANOMALY   = 300.3915

EPHEMERIS_TYPE = 0
CLASSIFICATION_TYPE = U
NORAD_CAT_ID   = 68106
ELEMENT_SET_NO = 999
REV_AT_EPOCH   = 541
BSTAR          = -.17174104E-1
MEAN_MOTION_DOT = -.862803E-2
MEAN_MOTION_DDOT = 0

CCSDS_OMM_VERS = 2.0
CREATION_DATE  = 
ORIGINATOR     = 

OBJECT_NAME    = STARLINK-37005
OBJECT_ID      = 2026-044G
CENTER_NAME    = EARTH
REF_FRAME      = TEME
TIME_SYSTEM    = UTC
MEAN_ELEMENT_THEORY = SGP/SGP4

EPOCH          = 2026-04-03T22:00:01.999584
MEAN_MOTION    = 15.49432800
ECCENTRICITY   = .00017507
INCLINATION    = 97.2854
RA_OF_ASC_NODE = 55.1771
ARG_OF_PERICENTER = 70.7782
MEAN_ANOMALY   = 269.0955

EPHEMERIS_TYPE = 0
CLASSIFICATION_TYPE = U
NORAD_CAT_ID   = 68107
ELEMENT_SET_NO = 999
REV_AT_EPOCH   = 541
BSTAR          = -.36718749E-1
MEAN_MOTION_DOT = -.1789491E-1
MEAN_MOTION_DDOT = 0

CCSDS_OMM_VERS = 2.0
CREATION_DATE  = 
ORIGINATOR     = 

OBJECT_NAME    = STARLINK-37017
OBJECT_ID      = 2026-044H
CENTER_NAME    = EARTH
REF_FRAME      = TEME
TIME_SYSTEM    = UTC
MEAN_ELEMENT_THEORY = SGP/SGP4

EPOCH          = 2026-04-03T22:00:01.999584
MEAN_MOTION    = 15.50314273
ECCENTRICITY   = .00014782
INCLINATION    = 97.2850
RA_OF_ASC_NODE = 55.1951
ARG_OF_PERICENTER = 80.4813
MEAN_ANOMALY   = 308.2297

EPHEMERIS_TYPE = 0
CLASSIFICATION_TYPE = U
NORAD_CAT_ID   = 68108
ELEMENT_SET_NO = 999
REV_AT_EPOCH   = 541
BSTAR          = -.3867684E-1
MEAN_MOTION_DOT = -.1961148E-1
MEAN_MOTION_DDOT = 0

CCSDS_OMM_VERS = 2.0
CREATION_DATE  = 
ORIGINATOR     = 

OBJECT_NAME    = STARLINK-36833
OBJECT_ID      = 2026-044J
CENTER_NAME    = EARTH
REF_FRAME      = TEME
TIME_SYSTEM    = UTC
MEAN_ELEMENT_THEORY = SGP/SGP4

EPOCH          = 2026-04-03T22:00:01.999584
MEAN_MOTION    = 15.50657218
ECCENTRICITY   = .00015614
INCLINATION    = 97.2849
RA_OF_ASC_NODE = 55.2012
ARG_OF_PERICENTER = 88.3781
MEAN_ANOMALY   = 317.6327

EPHEMERIS_TYPE = 0
CLASSIFICATION_TYPE = U
NORAD_CAT_ID   = 68109
ELEMENT_SET_NO = 999
REV_AT_EPOCH   = 545
BSTAR          = -.33242949E-1
MEAN_MOTION_DOT = -.1702255E-1
MEAN_MOTION_DDOT = 0

CCSDS_OMM_VERS = 2.0
CREATION_DATE  = 
ORIGINATOR     = 

OBJECT_NAME    = STARLINK-36830
OBJECT_ID      = 2026-044K
CENTER_NAME    = EARTH
REF_FRAME      = TEME
TIME_SYSTEM    = UTC
MEAN_ELEMENT_THEORY = SGP/SGP4

EPOCH          = 2026-04-03T22:00:01.999584
MEAN_MOTION    = 15.50622542
ECCENTRICITY   = .00015996
INCLINATION    = 97.2851
RA_OF_ASC_NODE = 55.1988
ARG_OF_PERICENTER = 79.4188
MEAN_ANOMALY   = 319.8098

EPHEMERIS_TYPE = 0
CLASSIFICATION_TYPE = U
NORAD_CAT_ID   = 68110
ELEMENT_SET_NO = 999
REV_AT_EPOCH   = 545
BSTAR          = -.38234301E-1
MEAN_MOTION_DOT = -.1960283E-1
MEAN_MOTION_DDOT = 0

CCSDS_OMM_VERS = 2.0
CREATION_DATE  = 
ORIGINATOR     = 

OBJECT_NAME    = STARLINK-36791
OBJECT_ID      = 2026-044L
CENTER_NAME    = EARTH
REF_FRAME      = TEME
TIME_SYSTEM    = UTC
MEAN_ELEMENT_THEORY = SGP/SGP4

EPOCH          = 2026-04-03T22:00:01.999584
MEAN_MOTION    = 15.51128108
ECCENTRICITY   = .00016383
INCLINATION    = 97.2850
RA_OF_ASC_NODE = 55.2086
ARG_OF_PERICENTER = 86.4002
MEAN_ANOMALY   = 335.3169

EPHEMERIS_TYPE = 0
CLASSIFICATION_TYPE = U
NORAD_CAT_ID   = 68111
ELEMENT_SET_NO = 999
REV_AT_EPOCH   = 541
BSTAR          = -.37590169E-1
MEAN_MOTION_DOT = -.1962183E-1
MEAN_MOTION_DDOT = 0

