GLOBAL-34               
1 68098U 26043A   26092.86171856  .00020494  00000+0  65476-3 0  9996
2 68098  42.0208 295.9341 0003589 104.2885 255.8351 15.32028422  4276
STARLINK-37022          
1 68101U 26044A   26093.91668981 -.02009567  00000+0 -41165-1 0  9998
2 68101  97.2857  55.1593 0001064 101.0383 197.4512 15.49326998  5450
STARLINK-37046          
1 68102U 26044B   26093.91668981 -.01906704  00000+0 -39264-1 0  9994
2 68102  97.2852  55.1678 0002209  99.9412 216.6953 15.48997035  5458
STARLINK-37018          
1 68103U 26044C   26093.91668981 -.01915085  00000+0 -39320-1 0  9990
2 68103  97.2853  55.1737 0001619 101.1650 229.1629 15.49100281  5415
STARLINK-37041          
1 68104U 26044D   26093.91668981 -.01908286  00000+0 -38652-1 0  9993
2 68104  97.2854  55.1844 0001477 103.1813 251.9645 15.49475080  5414
STARLINK-37021          
1 68105U 26044E   26093.91668981 -.00102025  00000+0 -18953-2 0  9993
2 68105  97.2852  55.1677 0001626  95.4528 225.3492 15.49238324  5412
STARLINK-37024          
1 68106U 26044F   26093.91668981 -.00862803  00000+0 -17174-1 0  9994
2 68106  97.2849  55.1876 0001466  72.1441 300.3915 15.49553518  5417
STARLINK-37005          
1 68107U 26044G   26093.91668981 -.01789491  00000+0 -36719-1 0  9993
2 68107  97.2854  55.1771 0001750  70.7782 269.0955 15.49432800  5411
STARLINK-37017          
1 68108U 26044H   26093.91668981 -.01961148  00000+0 -38677-1 0  9990
2 68108  97.2850  55.1951 0001478  80.4813 308.2297 15.50314273  5418
STARLINK-36833          
1 68109U 26044J   26093.91668981 -.01702255  00000+0 -33243-1 0  9997
2 68109  97.2849  55.2012 0001561  88.3781 317.6327 15.50657218  5451
STARLINK-36830          
1 68110U 26044K   26093.91668981 -.01960283  00000+0 -38234-1 0  9991
2 68110  97.2851  55.1988 0001599  79.4188 319.8098 15.50622542  5451
STARLINK-36791          
1 68111U 26044L   26093.91668981 -.01962183  00000+0 -37590-1 0  9997
2 68111  97.2850  55.2086 0001638  86.4002 335.3169 15.51128108  5416
